{
    "links": {
        "self": "http://www.neowsapp.com/rest/v1/neo/3660065?api_key=iIulBulltgU6a56xZRHN4H3l9WmuAYTsLGpBGhQ2"
    },
    "id": "3660065",
    "neo_reference_id": "3660065",
    "name": "(2014 BY43)",
    "designation": "2014 BY43",
    "nasa_jpl_url": "http://ssd.jpl.nasa.gov/sbdb.cgi?sstr=3660065",
    "absolute_magnitude_h": 25.2,
    "estimated_diameter": {
        "kilometers": {
            "estimated_diameter_min": 0.0242412481,
            "estimated_diameter_max": 0.0542050786
        },
        "meters": {
            "estimated_diameter_min": 24.2412481101,
            "estimated_diameter_max": 54.2050786336
        },
        "miles": {
            "estimated_diameter_min": 0.0150628086,
            "estimated_diameter_max": 0.0336814639
        },
        "feet": {
            "estimated_diameter_min": 79.5316564495,
            "estimated_diameter_max": 177.8381901842
        }
    },
    "is_potentially_hazardous_asteroid": false,
    "close_approach_data": [
        {
            "close_approach_date": "1917-01-21",
            "close_approach_date_full": "1917-Jan-21 13:52",
            "epoch_date_close_approach": -1670753280000,
            "relative_velocity": {
                "kilometers_per_second": "23.7136296774",
                "kilometers_per_hour": "85369.0668385432",
                "miles_per_hour": "53045.0182253159"
            },
            "miss_distance": {
                "astronomical": "0.3556735407",
                "lunar": "138.3570073323",
                "kilometers": "53208004.104078309",
                "miles": "33061920.6486423042"
            },
            "orbiting_body": "Earth"
        },
        {
            "close_approach_date": "2014-01-30",
            "close_approach_date_full": "2014-Jan-30 18:58",
            "epoch_date_close_approach": 1391108280000,
            "relative_velocity": {
                "kilometers_per_second": "19.4137503493",
                "kilometers_per_hour": "69889.5012574829",
                "miles_per_hour": "43426.618156351"
            },
            "miss_distance": {
                "astronomical": "0.0528813386",
                "lunar": "20.5708407154",
                "kilometers": "7910935.617308782",
                "miles": "4915627.4519219116"
            },
            "orbiting_body": "Earth"
        },
        {
            "close_approach_date": "2014-07-27",
            "close_approach_date_full": "2014-Jul-27 16:24",
            "epoch_date_close_approach": 1406478240000,
            "relative_velocity": {
                "kilometers_per_second": "18.7994099122",
                "kilometers_per_hour": "67677.8756837818",
                "miles_per_hour": "42052.4000325143"
            },
            "miss_distance": {
                "astronomical": "0.2248189828",
                "lunar": "87.4545843092",
                "kilometers": "33632440.962446636",
                "miles": "20898229.7502741368"
            },
            "orbiting_body": "Earth"
        },
        {
            "close_approach_date": "2015-08-10",
            "close_approach_date_full": "2015-Aug-10 11:26",
            "epoch_date_close_approach": 1439205960000,
            "relative_velocity": {
                "kilometers_per_second": "22.4724000414",
                "kilometers_per_hour": "80900.6401489579",
                "miles_per_hour": "50268.5116525567"
            },
            "miss_distance": {
                "astronomical": "0.3074246639",
                "lunar": "119.5881942571",
                "kilometers": "45990074.904905893",
                "miles": "28576907.4171036034"
            },
            "orbiting_body": "Earth"
        }
    ],
    "orbital_data": {
        "orbit_id": "9",
        "orbit_determination_date": "2018-02-10 07:05:43",
        "first_observation_date": "2014-01-28",
        "last_observation_date": "2014-02-03",
        "data_arc_in_days": 6,
        "observations_used": 38,
        "orbit_uncertainty": "8",
        "minimum_orbit_intersection": ".0360604",
        "jupiter_tisserand_invariant": "5.622",
        "epoch_osculation": "2456687.5",
        "eccentricity": ".1142826342390075",
        "semi_major_axis": "1.059744048367083",
        "inclination": "37.39220517067207",
        "ascending_node_longitude": "309.6620271217191",
        "orbital_period": "398.4739236323754",
        "perihelion_distance": ".9386337069005826",
        "perihelion_argument": "266.3661625649149",
        "aphelion_distance": "1.180854389833583",
        "perihelion_time": "2456768.833523050561",
        "mean_anomaly": "286.5194870688321",
        "mean_motion": ".9034468221115751",
        "equinox": "J2000",
        "orbit_class": {
            "orbit_class_type": "APO",
            "orbit_class_description": "Near-Earth asteroid orbits which cross the Earth’s orbit similar to that of 1862 Apollo",
            "orbit_class_range": "a (semi-major axis) > 1.0 AU; q (perihelion) < 1.017 AU"
        }
    },
    "is_sentry_object": false
}